TELSTAR 18V             
1 43611U 18069A   26154.87945588 -.00000281  00000+0  00000+0 0  9991
2 43611   0.0180 290.0702 0002230 137.9669 278.9155  1.00273829 28508
AZERSPACE 2 (IS-38)     
1 43632U 18074A   26154.93233328  .00000148  00000+0  00000+0 0  9990
2 43632   0.0174 340.2532 0001575  97.9559 194.9213  1.00271970 28313
HORIZONS-3E             
1 43633U 18074B   26154.74303062 -.00000018  00000+0  00000+0 0  9990
2 43633   0.0147 152.8945 0000689 126.1807  49.6128  1.00271837 28206
AEHF-4 (USA 288)        
1 43651U 18079A   26154.91004935 -.00000263  00000+0  00000+0 0  9993
2 43651   1.4287   2.8127 0060955 357.6760 151.7959  1.00274777 28161
BEIDOU-3 G1             
1 43683U 18085A   26154.88378924 -.00000097  00000+0  00000+0 0  9998
2 43683   2.8349  97.7451 0008553 345.4127 287.3266  1.00272127 27928
GSAT-29                 
1 43698U 18089A   26154.93432662  .00000097  00000+0  00000+0 0  9993
2 43698   0.0383 109.0516 0003805 321.4033 213.3319  1.00270537 27657
ES'HAIL 2               
1 43700U 18090A   26154.85724576  .00000156  00000+0  00000+0 0  9994
2 43700   0.0179   1.1383 0001970 105.3537 120.2160  1.00272337 27545
GEO-KOMPSAT-2A          
1 43823U 18100A   26154.73497059 -.00000332  00000+0  00000+0 0  9999
2 43823   0.0517 140.6437 0002341 302.9772 201.4258  1.00270341 27492
GSAT-11                 
1 43824U 18100B   26154.79548693 -.00000065  00000+0  00000+0 0  9990
2 43824   0.0603 258.5091 0008055 185.7389 168.3882  1.00271938 27344
GSAT-7A                 
1 43864U 18105A   26154.86452580  .00000038  00000+0  00000+0 0  9995
2 43864   0.0274 259.3180 0002705 152.1115 214.9489  1.00273760 27314
COSMOS 2533             
1 43867U 18107A   26154.50950262 -.00000026  00000+0  00000+0 0  9999
2 43867   0.0538 110.1970 0001043 335.7930  59.3927  1.00269918 27317
TJS-3                   
1 43874U 18110A   26154.66762008 -.00000204  00000+0  00000+0 0  9995
2 43874   2.5099  80.6531 0001866  66.8699 133.1554  1.00274849 27287
ZHONGXING-2D            
1 43920U 19001A   26154.94914670 -.00000325  00000+0  00000+0 0  9996
2 43920   0.0412  77.5678 0000942 292.2411 354.3162  1.00271626 53943
HELLAS-SAT 4 & SGS-1    
1 44034U 19007A   26154.85984578  .00000165  00000+0  00000+0 0  9994
2 44034   0.0682 130.0593 0004869   6.3652 104.4600  1.00269159 27235
GSAT-31                 
1 44035U 19007B   26154.93293995  .00000137  00000+0  00000+0 0  9999
2 44035   0.0740  95.5109 0000982 275.2974 265.3117  1.00272337 26832
NUSANTARA SATU          
1 44048U 19009A   26154.83655767 -.00000222  00000+0  00000+0 0  9999
2 44048   0.0457 144.7788 0004413 327.7787 226.9153  1.00270746 26632
ZHONGXING-6C            
1 44067U 19012A   26154.30761181 -.00000323  00000+0  00000+0 0  9996
2 44067   0.1289  81.2909 0013481 326.5822  85.0709  1.00271633 26603
WGS 10 (USA 291)        
1 44071U 19014A   26152.51129727  .00000059  00000+0  00000+0 0  9993
2 44071   0.0180  11.7393 0000508  28.2181  94.4140  1.00272494 26465
TIANLIAN 2-01           
1 44076U 19017A   26154.79609360 -.00000095  00000+0  00000+0 0  9990
2 44076   0.5052  83.1207 0001038 354.9069 177.8429  1.00271773 26514
ARABSAT-6A              
1 44186U 19021A   26154.92949182  .00000165  00000+0  00000+0 0  9998
2 44186   0.0511   6.5867 0001019  36.5156 214.3892  1.00272448 26028
BEIDOU-3 IGSO-1         
1 44204U 19023A   26141.61780730 -.00000234  00000+0  00000+0 0  9993
2 44204  58.6591  37.9235 0025546 227.4594 312.4431  1.00299087  6947
BEIDOU-2 G8             
1 44231U 19027A   26154.88075589 -.00000235  00000+0  00000+0 0  9990
2 44231   1.6248  74.4914 0010773 284.2899 355.0904  1.00276177 25943
YAMAL 601               
1 44307U 19031A   26154.93311329  .00000132  00000+0  00000+0 0  9995
2 44307   0.0217  56.4894 0002639  20.8204 199.9980  1.00272722 25793
AT&T T-16               
1 44333U 19034A   26154.90346266 -.00000103  00000+0  00000+0 0  9991
2 44333   0.0268  66.1523 0000357 224.5559 186.0372  1.00271895 25507
EUTELSAT 7C             
1 44334U 19034B   26154.92479203  .00000060  00000+0  00000+0 0  9993
2 44334   0.0746 174.3427 0003332 244.4039 173.5575  1.00271388  6708
BEIDOU-3 IGSO-2         
1 44337U 19035A   26154.61080799 -.00000071  00000+0  00000+0 0  9994
2 44337  55.2443 158.9810 0039672 216.0015 216.9100  1.00271103 25539
COSMOS 2539             
1 44457U 19048A   26153.73980449  .00000094  00000+0  00000+0 0  9998
2 44457   0.0385  92.0927 0000645   1.2529  76.1965  1.00274138 25080
EDRS-C                  
1 44475U 19049A   26154.88023589 -.00000250  00000+0  00000+0 0  9994
2 44475   0.0066 340.4416 0001305 119.6090 251.6751  1.00271557 25074
INTELSAT 39 (IS-39)     
1 44476U 19049B   26154.86435247  .00000045  00000+0  00000+0 0  9992
2 44476   0.0186 323.9850 0000601   7.1591 294.2970  1.00271363 24992
AMOS-17                 
1 44479U 19050A   26154.92678536  .00000121  00000+0  00000+0 0  9999
2 44479   0.0247 308.2831 0001813 153.2411 141.4940  1.00273348 25051
AEHF-5 (USA 292)        
1 44481U 19051A   26154.87044250 -.00000246  00000+0  00000+0 0  9996
2 44481   1.4658 335.1458 0067179   1.3977 322.2145  1.00269767 25120
