OBJECT_NAME,OBJECT_ID,EPOCH,MEAN_MOTION,ECCENTRICITY,INCLINATION,RA_OF_ASC_NODE,ARG_OF_PERICENTER,MEAN_ANOMALY,EPHEMERIS_TYPE,CLASSIFICATION_TYPE,NORAD_CAT_ID,ELEMENT_SET_NO,REV_AT_EPOCH,BSTAR,MEAN_MOTION_DOT,MEAN_MOTION_DDOT
TELSTAR 18V,2018-069A,2026-06-03T21:06:24.988032,1.00273829,.00022303,0.0180,290.0702,137.9669,278.9155,0,U,43611,999,2850,0,-.281E-5,0
AZERSPACE 2 (IS-38),2018-074A,2026-06-03T22:22:33.595392,1.00271970,.00015755,0.0174,340.2532,97.9559,194.9213,0,U,43632,999,2831,0,.148E-5,0
HORIZONS-3E,2018-074B,2026-06-03T17:49:57.845568,1.00271837,.00006896,0.0147,152.8945,126.1807,49.6128,0,U,43633,999,2820,0,-.18E-6,0
AEHF-4 (USA 288),2018-079A,2026-06-03T21:50:28.263840,1.00274777,.00609559,1.4287,2.8127,357.6760,151.7959,0,U,43651,999,2816,0,-.263E-5,0
BEIDOU-3 G1,2018-085A,2026-06-03T21:12:39.390336,1.00272127,.00085537,2.8349,97.7451,345.4127,287.3266,0,U,43683,999,2792,0,-.97E-6,0
GSAT-29,2018-089A,2026-06-03T22:25:25.819968,1.00270537,.00038057,0.0383,109.0516,321.4033,213.3319,0,U,43698,999,2765,0,.97E-6,0
ES'HAIL 2,2018-090A,2026-06-03T20:34:26.033664,1.00272337,.00019708,0.0179,1.1383,105.3537,120.2160,0,U,43700,999,2754,0,.156E-5,0
GEO-KOMPSAT-2A,2018-100A,2026-06-03T17:38:21.458976,1.00270341,.0002341,0.0517,140.6437,302.9772,201.4258,0,U,43823,999,2749,0,-.332E-5,0
GSAT-11,2018-100B,2026-06-03T19:05:30.070752,1.00271938,.00080559,0.0603,258.5091,185.7389,168.3882,0,U,43824,999,2734,0,-.65E-6,0
GSAT-7A,2018-105A,2026-06-03T20:44:55.029120,1.00273760,.00027051,0.0274,259.3180,152.1115,214.9489,0,U,43864,999,2731,0,.38E-6,0
COSMOS 2533,2018-107A,2026-06-03T12:13:41.026368,1.00269918,.00010435,0.0538,110.1970,335.7930,59.3927,0,U,43867,999,2731,0,-.26E-6,0
TJS-3,2018-110A,2026-06-03T16:01:22.374912,1.00274849,.0001866,2.5099,80.6531,66.8699,133.1554,0,U,43874,999,2728,0,-.204E-5,0
ZHONGXING-2D,2019-001A,2026-06-03T22:46:46.274880,1.00271626,.00009427,0.0412,77.5678,292.2411,354.3162,0,U,43920,999,5394,0,-.325E-5,0
HELLAS-SAT 4 & SGS-1,2019-007A,2026-06-03T20:38:10.675392,1.00269159,.00048694,0.0682,130.0593,6.3652,104.4600,0,U,44034,999,2723,0,.165E-5,0
GSAT-31,2019-007B,2026-06-03T22:23:26.011680,1.00272337,.00009827,0.0740,95.5109,275.2974,265.3117,0,U,44035,999,2683,0,.137E-5,0
NUSANTARA SATU,2019-009A,2026-06-03T20:04:38.582688,1.00270746,.00044135,0.0457,144.7788,327.7787,226.9153,0,U,44048,999,2663,0,-.222E-5,0
ZHONGXING-6C,2019-012A,2026-06-03T07:22:57.660384,1.00271633,.00134812,0.1289,81.2909,326.5822,85.0709,0,U,44067,999,2660,0,-.323E-5,0
WGS 10 (USA 291),2019-014A,2026-06-01T12:16:16.084128,1.00272494,.00005089,0.0180,11.7393,28.2181,94.4140,0,U,44071,999,2646,0,.59E-6,0
TIANLIAN 2-01,2019-017A,2026-06-03T19:06:22.487040,1.00271773,.00010384,0.5052,83.1207,354.9069,177.8429,0,U,44076,999,2651,0,-.95E-6,0
ARABSAT-6A,2019-021A,2026-06-03T22:18:28.093248,1.00272448,.00010199,0.0511,6.5867,36.5156,214.3892,0,U,44186,999,2602,0,.165E-5,0
BEIDOU-3 IGSO-1,2019-023A,2026-05-21T14:49:38.550720,1.00299087,.0025546,58.6591,37.9235,227.4594,312.4431,0,U,44204,999,694,0,-.234E-5,0
BEIDOU-2 G8,2019-027A,2026-06-03T21:08:17.308896,1.00276177,.00107731,1.6248,74.4914,284.2899,355.0904,0,U,44231,999,2594,0,-.235E-5,0
YAMAL 601,2019-031A,2026-06-03T22:23:40.988256,1.00272722,.00026395,0.0217,56.4894,20.8204,199.9980,0,U,44307,999,2579,0,.132E-5,0
AT&T T-16,2019-034A,2026-06-03T21:40:59.173824,1.00271895,.00003579,0.0268,66.1523,224.5559,186.0372,0,U,44333,999,2550,0,-.103E-5,0
EUTELSAT 7C,2019-034B,2026-06-03T22:11:42.031392,1.00271388,.00033324,0.0746,174.3427,244.4039,173.5575,0,U,44334,999,670,0,.6E-6,0
BEIDOU-3 IGSO-2,2019-035A,2026-06-03T14:39:33.810336,1.00271103,.0039672,55.2443,158.9810,216.0015,216.9100,0,U,44337,999,2553,0,-.71E-6,0
COSMOS 2539,2019-048A,2026-06-02T17:45:19.107936,1.00274138,.00006458,0.0385,92.0927,1.2529,76.1965,0,U,44457,999,2508,0,.94E-6,0
EDRS-C,2019-049A,2026-06-03T21:07:32.380896,1.00271557,.00013053,0.0066,340.4416,119.6090,251.6751,0,U,44475,999,2507,0,-.25E-5,0
INTELSAT 39 (IS-39),2019-049B,2026-06-03T20:44:40.053408,1.00271363,.00006012,0.0186,323.9850,7.1591,294.2970,0,U,44476,999,2499,0,.45E-6,0
AMOS-17,2019-050A,2026-06-03T22:14:34.255104,1.00273348,.00018135,0.0247,308.2831,153.2411,141.4940,0,U,44479,999,2505,0,.121E-5,0
AEHF-5 (USA 292),2019-051A,2026-06-03T20:53:26.232000,1.00269767,.0067179,1.4658,335.1458,1.3977,322.2145,0,U,44481,999,2512,0,-.246E-5,0
